[{"OBJECT_NAME":"STARLINK-35285","OBJECT_ID":"2025-218S","EPOCH":"2026-03-09T14:08:42.306720","MEAN_MOTION":15.05647145,"ECCENTRICITY":0.000241,"INCLINATION":97.6005,"RA_OF_ASC_NODE":292.8413,"ARG_OF_PERICENTER":71.0843,"MEAN_ANOMALY":289.0645,"EPHEMERIS_TYPE":0,"CLASSIFICATION_TYPE":"U","NORAD_CAT_ID":65807,"ELEMENT_SET_NO":999,"REV_AT_EPOCH":2495,"BSTAR":0.00019659,"MEAN_MOTION_DOT":2.777e-5,"MEAN_MOTION_DDOT":0},{"OBJECT_NAME":"OBJECT H","OBJECT_ID":"2025-292H","EPOCH":"2026-03-09T22:24:53.558208","MEAN_MOTION":15.06373042,"ECCENTRICITY":0.00142604,"INCLINATION":97.6442,"RA_OF_ASC_NODE":145.7846,"ARG_OF_PERICENTER":348.9217,"MEAN_ANOMALY":11.1694,"EPHEMERIS_TYPE":0,"CLASSIFICATION_TYPE":"U","NORAD_CAT_ID":67000,"ELEMENT_SET_NO":999,"REV_AT_EPOCH":1338,"BSTAR":0.0005462937,"MEAN_MOTION_DOT":8.001e-5,"MEAN_MOTION_DDOT":0}]
